[{"OBJECT_NAME":"STARLINK-5397","OBJECT_ID":"2022-177BD","EPOCH":"2026-03-09T04:41:47.694624","MEAN_MOTION":15.02538394,"ECCENTRICITY":0.00014349,"INCLINATION":43.0056,"RA_OF_ASC_NODE":122.7795,"ARG_OF_PERICENTER":270.05,"MEAN_ANOMALY":90.0178,"EPHEMERIS_TYPE":0,"CLASSIFICATION_TYPE":"U","NORAD_CAT_ID":54871,"ELEMENT_SET_NO":999,"REV_AT_EPOCH":17703,"BSTAR":-5.8760845e-5,"MEAN_MOTION_DOT":-9.97e-6,"MEAN_MOTION_DDOT":0},{"OBJECT_NAME":"COSMOS 807","OBJECT_ID":"1976-022A","EPOCH":"2026-03-09T22:26:32.449920","MEAN_MOTION":14.61425434,"ECCENTRICITY":0.04604657,"INCLINATION":82.9148,"RA_OF_ASC_NODE":45.0203,"ARG_OF_PERICENTER":213.1542,"MEAN_ANOMALY":175.2323,"EPHEMERIS_TYPE":0,"CLASSIFICATION_TYPE":"U","NORAD_CAT_ID":8744,"ELEMENT_SET_NO":999,"REV_AT_EPOCH":53512,"BSTAR":0.00024537229,"MEAN_MOTION_DOT":5.984e-5,"MEAN_MOTION_DDOT":0}]
